[{"OBJECT_NAME":"STARLINK-31346","OBJECT_ID":"2024-027N","EPOCH":"2026-03-09T23:25:16.023360","MEAN_MOTION":15.30208288,"ECCENTRICITY":0.00012728,"INCLINATION":53.1615,"RA_OF_ASC_NODE":306.0675,"ARG_OF_PERICENTER":116.8249,"MEAN_ANOMALY":243.2882,"EPHEMERIS_TYPE":0,"CLASSIFICATION_TYPE":"U","NORAD_CAT_ID":58943,"ELEMENT_SET_NO":999,"REV_AT_EPOCH":11740,"BSTAR":-7.9707385e-5,"MEAN_MOTION_DOT":-2.72e-5,"MEAN_MOTION_DDOT":0},{"OBJECT_NAME":"ARIANE 40 R\/B","OBJECT_ID":"1999-064C","EPOCH":"2026-03-09T18:24:37.025280","MEAN_MOTION":15.31364882,"ECCENTRICITY":0.00050095,"INCLINATION":98.1631,"RA_OF_ASC_NODE":150.8872,"ARG_OF_PERICENTER":91.4057,"MEAN_ANOMALY":268.7755,"EPHEMERIS_TYPE":0,"CLASSIFICATION_TYPE":"U","NORAD_CAT_ID":25979,"ELEMENT_SET_NO":999,"REV_AT_EPOCH":42869,"BSTAR":0.00066758353,"MEAN_MOTION_DOT":0.00020173,"MEAN_MOTION_DDOT":0}]
